{
  "type": "FeatureCollection",
  "features": [
    {
      "type": "Feature",
      "properties": {
        "norad_id": 67018,
        "name": "STARLINK-36106",
        "group": "last-30-days",
        "lat": -31.908540862038784,
        "lon": 118.92440565548367,
        "alt_km": 348.22354490072667,
        "timestamp": "2025-12-25T20:42:37.410752+00:00",
        "meta_object_name": "STARLINK-36106",
        "meta_object_id": "2025-293R",
        "meta_epoch": "2025-12-25T06:00:04.000320",
        "meta_mean_motion": 15.77367614,
        "meta_eccentricity": 0.00037242,
        "meta_inclination": 69.9922,
        "meta_ra_of_asc_node": 287.5495,
        "meta_arg_of_pericenter": 269.4439,
        "meta_mean_anomaly": 67.863,
        "meta_ephemeris_type": 0,
        "meta_classification_type": "U",
        "meta_norad_cat_id": 67018,
        "meta_element_set_no": 999,
        "meta_rev_at_epoch": 223,
        "meta_bstar": -0.010980577,
        "meta_mean_motion_dot": -0.01588658,
        "meta_mean_motion_ddot": 0,
        "tle_line1": "1 67018U 25293R   25359.25004630 -.01588658  00000+0 -10981-1 0  9999",
        "tle_line2": "2 67018  69.9922 287.5495 0003724 269.4439  67.8630 15.77367614  2238"
      },
      "geometry": {
        "type": "Point",
        "coordinates": [
          118.92440565548367,
          -31.908540862038784
        ]
      }
    },
    {
      "type": "Feature",
      "properties": {
        "norad_id": 67019,
        "name": "STARLINK-35688",
        "group": "last-30-days",
        "lat": -33.920826066343764,
        "lon": 119.99269080593115,
        "alt_km": 348.343829506759,
        "timestamp": "2025-12-25T20:42:37.410762+00:00",
        "meta_object_name": "STARLINK-35688",
        "meta_object_id": "2025-293S",
        "meta_epoch": "2025-12-25T06:00:04.000320",
        "meta_mean_motion": 15.77363438,
        "meta_eccentricity": 0.00037144,
        "meta_inclination": 69.9921,
        "meta_ra_of_asc_node": 287.5467,
        "meta_arg_of_pericenter": 270.1367,
        "meta_mean_anomaly": 69.3982,
        "meta_ephemeris_type": 0,
        "meta_classification_type": "U",
        "meta_norad_cat_id": 67019,
        "meta_element_set_no": 999,
        "meta_rev_at_epoch": 231,
        "meta_bstar": -0.011045478,
        "meta_mean_motion_dot": -0.0159657,
        "meta_mean_motion_ddot": 0,
        "tle_line1": "1 67019U 25293S   25359.25004630 -.01596570  00000+0 -11045-1 0  9994",
        "tle_line2": "2 67019  69.9921 287.5467 0003714 270.1367  69.3982 15.77363438  2311"
      },
      "geometry": {
        "type": "Point",
        "coordinates": [
          119.99269080593115,
          -33.920826066343764
        ]
      }
    },
    {
      "type": "Feature",
      "properties": {
        "norad_id": 67020,
        "name": "STARLINK-36172",
        "group": "last-30-days",
        "lat": -36.26328644247215,
        "lon": 121.30931312424804,
        "alt_km": 348.41253007314936,
        "timestamp": "2025-12-25T20:42:37.410774+00:00",
        "meta_object_name": "STARLINK-36172",
        "meta_object_id": "2025-293T",
        "meta_epoch": "2025-12-25T06:00:04.000320",
        "meta_mean_motion": 15.77331074,
        "meta_eccentricity": 0.00039165,
        "meta_inclination": 69.9921,
        "meta_ra_of_asc_node": 287.5438,
        "meta_arg_of_pericenter": 271.5884,
        "meta_mean_anomaly": 70.5904,
        "meta_ephemeris_type": 0,
        "meta_classification_type": "U",
        "meta_norad_cat_id": 67020,
        "meta_element_set_no": 999,
        "meta_rev_at_epoch": 223,
        "meta_bstar": -0.0110064,
        "meta_mean_motion_dot": -0.01589832,
        "meta_mean_motion_ddot": 0,
        "tle_line1": "1 67020U 25293T   25359.25004630 -.01589832  00000+0 -11006-1 0  9996",
        "tle_line2": "2 67020  69.9921 287.5438 0003916 271.5884  70.5904 15.77331074  2234"
      },
      "geometry": {
        "type": "Point",
        "coordinates": [
          121.30931312424804,
          -36.26328644247215
        ]
      }
    },
    {
      "type": "Feature",
      "properties": {
        "norad_id": 67021,
        "name": "STARLINK-36184",
        "group": "last-30-days",
        "lat": -38.44476995523349,
        "lon": 122.61635021207265,
        "alt_km": 348.5571033553124,
        "timestamp": "2025-12-25T20:42:37.410784+00:00",
        "meta_object_name": "STARLINK-36184",
        "meta_object_id": "2025-293U",
        "meta_epoch": "2025-12-25T06:00:04.000320",
        "meta_mean_motion": 15.77310759,
        "meta_eccentricity": 0.00037762,
        "meta_inclination": 69.9922,
        "meta_ra_of_asc_node": 287.5406,
        "meta_arg_of_pericenter": 270.4137,
        "meta_mean_anomaly": 74.2407,
        "meta_ephemeris_type": 0,
        "meta_classification_type": "U",
        "meta_norad_cat_id": 67021,
        "meta_element_set_no": 999,
        "meta_rev_at_epoch": 223,
        "meta_bstar": -0.011080021,
        "meta_mean_motion_dot": -0.01597687,
        "meta_mean_motion_ddot": 0,
        "tle_line1": "1 67021U 25293U   25359.25004630 -.01597687  00000+0 -11080-1 0  9996",
        "tle_line2": "2 67021  69.9922 287.5406 0003776 270.4137  74.2407 15.77310759  2230"
      },
      "geometry": {
        "type": "Point",
        "coordinates": [
          122.61635021207265,
          -38.44476995523349
        ]
      }
    },
    {
      "type": "Feature",
      "properties": {
        "norad_id": 67022,
        "name": "STARLINK-36209",
        "group": "last-30-days",
        "lat": -40.85671477763088,
        "lon": 124.16956705543974,
        "alt_km": 348.759473527125,
        "timestamp": "2025-12-25T20:42:37.410796+00:00",
        "meta_object_name": "STARLINK-36209",
        "meta_object_id": "2025-293V",
        "meta_epoch": "2025-12-25T06:00:04.000320",
        "meta_mean_motion": 15.77274245,
        "meta_eccentricity": 0.00037576,
        "meta_inclination": 69.9919,
        "meta_ra_of_asc_node": 287.5374,
        "meta_arg_of_pericenter": 273.029,
        "meta_mean_anomaly": 74.3929,
        "meta_ephemeris_type": 0,
        "meta_classification_type": "U",
        "meta_norad_cat_id": 67022,
        "meta_element_set_no": 999,
        "meta_rev_at_epoch": 223,
        "meta_bstar": -0.011050901,
        "meta_mean_motion_dot": -0.01591734,
        "meta_mean_motion_ddot": 0,
        "tle_line1": "1 67022U 25293V   25359.25004630 -.01591734  00000+0 -11051-1 0  9992",
        "tle_line2": "2 67022  69.9919 287.5374 0003757 273.0290  74.3929 15.77274245  2238"
      },
      "geometry": {
        "type": "Point",
        "coordinates": [
          124.16956705543974,
          -40.85671477763088
        ]
      }
    },
    {
      "type": "Feature",
      "properties": {
        "norad_id": 67023,
        "name": "STARLINK-36191",
        "group": "last-30-days",
        "lat": -42.94436337877844,
        "lon": 125.6199773755036,
        "alt_km": 348.719277228166,
        "timestamp": "2025-12-25T20:42:37.410806+00:00",
        "meta_object_name": "STARLINK-36191",
        "meta_object_id": "2025-293W",
        "meta_epoch": "2025-12-25T06:00:04.000320",
        "meta_mean_motion": 15.77254127,
        "meta_eccentricity": 0.00037749,
        "meta_inclination": 69.9918,
        "meta_ra_of_asc_node": 287.5339,
        "meta_arg_of_pericenter": 269.8313,
        "meta_mean_anomaly": 79.9863,
        "meta_ephemeris_type": 0,
        "meta_classification_type": "U",
        "meta_norad_cat_id": 67023,
        "meta_element_set_no": 999,
        "meta_rev_at_epoch": 212,
        "meta_bstar": -0.011056506,
        "meta_mean_motion_dot": -0.01591203,
        "meta_mean_motion_ddot": 0,
        "tle_line1": "1 67023U 25293W   25359.25004630 -.01591203  00000+0 -11057-1 0  9990",
        "tle_line2": "2 67023  69.9918 287.5339 0003774 269.8313  79.9863 15.77254127  2120"
      },
      "geometry": {
        "type": "Point",
        "coordinates": [
          125.6199773755036,
          -42.94436337877844
        ]
      }
    },
    {
      "type": "Feature",
      "properties": {
        "norad_id": 67024,
        "name": "STARLINK-36192",
        "group": "last-30-days",
        "lat": -45.189146052561306,
        "lon": 127.31131012375765,
        "alt_km": 348.83260615807194,
        "timestamp": "2025-12-25T20:42:37.410818+00:00",
        "meta_object_name": "STARLINK-36192",
        "meta_object_id": "2025-293X",
        "meta_epoch": "2025-12-25T06:00:04.000320",
        "meta_mean_motion": 15.77225941,
        "meta_eccentricity": 0.00037868,
        "meta_inclination": 69.9921,
        "meta_ra_of_asc_node": 287.5312,
        "meta_arg_of_pericenter": 270.6231,
        "meta_mean_anomaly": 81.814,
        "meta_ephemeris_type": 0,
        "meta_classification_type": "U",
        "meta_norad_cat_id": 67024,
        "meta_element_set_no": 999,
        "meta_rev_at_epoch": 223,
        "meta_bstar": -0.011074368,
        "meta_mean_motion_dot": -0.01591701,
        "meta_mean_motion_ddot": 0,
        "tle_line1": "1 67024U 25293X   25359.25004630 -.01591701  00000+0 -11074-1 0  9993",
        "tle_line2": "2 67024  69.9921 287.5312 0003786 270.6231  81.8140 15.77225941  2232"
      },
      "geometry": {
        "type": "Point",
        "coordinates": [
          127.31131012375765,
          -45.189146052561306
        ]
      }
    }
  ]
}